{
  "type": "FeatureCollection",
  "features": [
    {
      "type": "Feature",
      "properties": {
        "norad_id": 43246,
        "name": "BEIDOU-3 M10 (C30)",
        "group": "gnss",
        "lat": -42.47384145817194,
        "lon": 167.33528225829457,
        "alt_km": 21539.865831178347,
        "timestamp": "2025-12-17T04:57:44.613578+00:00",
        "meta_object_name": "BEIDOU-3 M10 (C30)",
        "meta_object_id": "2018-029B",
        "meta_epoch": "2025-12-16T07:37:14.387232",
        "meta_mean_motion": 1.86228975,
        "meta_eccentricity": 0.00041174,
        "meta_inclination": 54.3596,
        "meta_ra_of_asc_node": 306.3695,
        "meta_arg_of_pericenter": 1.76,
        "meta_mean_anomaly": 358.228,
        "meta_ephemeris_type": 0,
        "meta_classification_type": "U",
        "meta_norad_cat_id": 43246,
        "meta_element_set_no": 999,
        "meta_rev_at_epoch": 5247,
        "meta_bstar": 0,
        "meta_mean_motion_dot": -9.6e-07,
        "meta_mean_motion_ddot": 0,
        "tle_line1": "1 43246U 18029B   25350.31752763 -.00000096  00000+0  00000+0 0  9992",
        "tle_line2": "2 43246  54.3596 306.3695 0004117   1.7600 358.2280  1.86228975 52476"
      },
      "geometry": {
        "type": "Point",
        "coordinates": [
          167.33528225829457,
          -42.47384145817194
        ]
      }
    },
    {
      "type": "Feature",
      "properties": {
        "norad_id": 43286,
        "name": "IRNSS-1I",
        "group": "gnss",
        "lat": 18.89884697331797,
        "lon": -140.80213272829678,
        "alt_km": 35717.69734904185,
        "timestamp": "2025-12-17T04:57:44.613589+00:00",
        "meta_object_name": "IRNSS-1I",
        "meta_object_id": "2018-035A",
        "meta_epoch": "2025-12-14T19:56:38.641056",
        "meta_mean_motion": 1.00272129,
        "meta_eccentricity": 0.00217173,
        "meta_inclination": 29.1546,
        "meta_ra_of_asc_node": 77.0653,
        "meta_arg_of_pericenter": 182.6132,
        "meta_mean_anomaly": 178.227,
        "meta_ephemeris_type": 0,
        "meta_classification_type": "U",
        "meta_norad_cat_id": 43286,
        "meta_element_set_no": 999,
        "meta_rev_at_epoch": 2823,
        "meta_bstar": 0,
        "meta_mean_motion_dot": 8.4e-07,
        "meta_mean_motion_ddot": 0,
        "tle_line1": "1 43286U 18035A   25348.83100279  .00000084  00000+0  00000+0 0  9992",
        "tle_line2": "2 43286  29.1546  77.0653 0021717 182.6132 178.2270  1.00272129 28237"
      },
      "geometry": {
        "type": "Point",
        "coordinates": [
          -140.80213272829678,
          18.89884697331797
        ]
      }
    },
    {
      "type": "Feature",
      "properties": {
        "norad_id": 43508,
        "name": "COSMOS 2527 (756)",
        "group": "gnss",
        "lat": 27.2126794048547,
        "lon": -113.56439233123614,
        "alt_km": 19121.42619192755,
        "timestamp": "2025-12-17T04:57:44.613599+00:00",
        "meta_object_name": "COSMOS 2527 (756)",
        "meta_object_id": "2018-053A",
        "meta_epoch": "2025-12-16T01:44:48.838272",
        "meta_mean_motion": 2.13102153,
        "meta_eccentricity": 0.00087862,
        "meta_inclination": 65.4745,
        "meta_ra_of_asc_node": 80.02,
        "meta_arg_of_pericenter": 225.9447,
        "meta_mean_anomaly": 133.9962,
        "meta_ephemeris_type": 0,
        "meta_classification_type": "U",
        "meta_norad_cat_id": 43508,
        "meta_element_set_no": 999,
        "meta_rev_at_epoch": 5837,
        "meta_bstar": 0,
        "meta_mean_motion_dot": -5.4e-07,
        "meta_mean_motion_ddot": 0,
        "tle_line1": "1 43508U 18053A   25350.07278748 -.00000054  00000+0  00000+0 0  9993",
        "tle_line2": "2 43508  65.4745  80.0200 0008786 225.9447 133.9962  2.13102153 58379"
      },
      "geometry": {
        "type": "Point",
        "coordinates": [
          -113.56439233123614,
          27.2126794048547
        ]
      }
    },
    {
      "type": "Feature",
      "properties": {
        "norad_id": 43539,
        "name": "BEIDOU-2 IGSO-7 (C16)",
        "group": "gnss",
        "lat": 52.15134918842331,
        "lon": -79.18324524721956,
        "alt_km": 36031.98348549963,
        "timestamp": "2025-12-17T04:57:44.613610+00:00",
        "meta_object_name": "BEIDOU-2 IGSO-7 (C16)",
        "meta_object_id": "2018-057A",
        "meta_epoch": "2025-12-15T07:47:07.120608",
        "meta_mean_motion": 1.00256546,
        "meta_eccentricity": 0.00926218,
        "meta_inclination": 55.1766,
        "meta_ra_of_asc_node": 164.6485,
        "meta_arg_of_pericenter": 235.2644,
        "meta_mean_anomaly": 271.8458,
        "meta_ephemeris_type": 0,
        "meta_classification_type": "U",
        "meta_norad_cat_id": 43539,
        "meta_element_set_no": 999,
        "meta_rev_at_epoch": 2728,
        "meta_bstar": 0,
        "meta_mean_motion_dot": -2.3e-07,
        "meta_mean_motion_ddot": 0,
        "tle_line1": "1 43539U 18057A   25349.32438797 -.00000023  00000+0  00000+0 0  9995",
        "tle_line2": "2 43539  55.1766 164.6485 0092621 235.2644 271.8458  1.00256546 27289"
      },
      "geometry": {
        "type": "Point",
        "coordinates": [
          -79.18324524721956,
          52.15134918842331
        ]
      }
    },
    {
      "type": "Feature",
      "properties": {
        "norad_id": 43564,
        "name": "GSAT0221 (GALILEO 25)",
        "group": "gnss",
        "lat": -8.594252645977612,
        "lon": -18.89445944676174,
        "alt_km": 23214.994888895744,
        "timestamp": "2025-12-17T04:57:44.613621+00:00",
        "meta_object_name": "GSAT0221 (GALILEO 25)",
        "meta_object_id": "2018-060A",
        "meta_epoch": "2025-12-16T01:12:23.962176",
        "meta_mean_motion": 1.70475915,
        "meta_eccentricity": 0.00067172,
        "meta_inclination": 57.2272,
        "meta_ra_of_asc_node": 346.7281,
        "meta_arg_of_pericenter": 284.684,
        "meta_mean_anomaly": 75.2594,
        "meta_ephemeris_type": 0,
        "meta_classification_type": "U",
        "meta_norad_cat_id": 43564,
        "meta_element_set_no": 999,
        "meta_rev_at_epoch": 4604,
        "meta_bstar": 0,
        "meta_mean_motion_dot": -8.1e-07,
        "meta_mean_motion_ddot": 0,
        "tle_line1": "1 43564U 18060A   25350.05027734 -.00000081  00000+0  00000+0 0  9998",
        "tle_line2": "2 43564  57.2272 346.7281 0006717 284.6840  75.2594  1.70475915 46048"
      },
      "geometry": {
        "type": "Point",
        "coordinates": [
          -18.89445944676174,
          -8.594252645977612
        ]
      }
    },
    {
      "type": "Feature",
      "properties": {
        "norad_id": 43565,
        "name": "GSAT0222 (GALILEO 26)",
        "group": "gnss",
        "lat": -28.881936847508697,
        "lon": -172.48649121715872,
        "alt_km": 23213.96430169236,
        "timestamp": "2025-12-17T04:57:44.613632+00:00",
        "meta_object_name": "GSAT0222 (GALILEO 26)",
        "meta_object_id": "2018-060B",
        "meta_epoch": "2025-12-14T12:14:12.279840",
        "meta_mean_motion": 1.70475606,
        "meta_eccentricity": 0.00061133,
        "meta_inclination": 57.2308,
        "meta_ra_of_asc_node": 346.7727,
        "meta_arg_of_pericenter": 264.5011,
        "meta_mean_anomaly": 95.4481,
        "meta_ephemeris_type": 0,
        "meta_classification_type": "U",
        "meta_norad_cat_id": 43565,
        "meta_element_set_no": 999,
        "meta_rev_at_epoch": 4606,
        "meta_bstar": 0,
        "meta_mean_motion_dot": -8.4e-07,
        "meta_mean_motion_ddot": 0,
        "tle_line1": "1 43565U 18060B   25348.50986435 -.00000084  00000+0  00000+0 0  9991",
        "tle_line2": "2 43565  57.2308 346.7727 0006113 264.5011  95.4481  1.70475606 46069"
      },
      "geometry": {
        "type": "Point",
        "coordinates": [
          -172.48649121715872,
          -28.881936847508697
        ]
      }
    },
    {
      "type": "Feature",
      "properties": {
        "norad_id": 43566,
        "name": "GSAT0219 (GALILEO 23)",
        "group": "gnss",
        "lat": 55.72491770290239,
        "lon": 57.665953620473374,
        "alt_km": 23230.782386257222,
        "timestamp": "2025-12-17T04:57:44.613642+00:00",
        "meta_object_name": "GSAT0219 (GALILEO 23)",
        "meta_object_id": "2018-060C",
        "meta_epoch": "2025-12-15T21:42:00.874656",
        "meta_mean_motion": 1.70475845,
        "meta_eccentricity": 0.00058258,
        "meta_inclination": 57.2298,
        "meta_ra_of_asc_node": 346.7365,
        "meta_arg_of_pericenter": 287.9846,
        "meta_mean_anomaly": 71.9699,
        "meta_ephemeris_type": 0,
        "meta_classification_type": "U",
        "meta_norad_cat_id": 43566,
        "meta_element_set_no": 999,
        "meta_rev_at_epoch": 4606,
        "meta_bstar": 0,
        "meta_mean_motion_dot": -8.2e-07,
        "meta_mean_motion_ddot": 0,
        "tle_line1": "1 43566U 18060C   25349.90417679 -.00000082  00000+0  00000+0 0  9994",
        "tle_line2": "2 43566  57.2298 346.7365 0005825 287.9846  71.9699  1.70475845 46065"
      },
      "geometry": {
        "type": "Point",
        "coordinates": [
          57.665953620473374,
          55.72491770290239
        ]
      }
    }
  ]
}